NORAD_CAT_ID,OBJECT_NAME,OBJECT_TYPE,EPOCH,MEAN_MOTION,ECCENTRICITY,INCLINATION,RA_OF_ASC_NODE,ARG_OF_PERICENTER,MEAN_ANOMALY,BSTAR,MEAN_MOTION_DOT,MEAN_MOTION_DDOT,TLE_LINE0,TLE_LINE1,TLE_LINE2,SEMIMAJOR_AXIS,PERIOD,APOGEE,PERIGEE,DECAYED
54783.0,STARLINK-5439,PAYLOAD,2024-06-06 09:06:05,15.08828018,0.0002587,53.2131,28.0562,100.9418,259.1865,7.7757e-05,9.49e-06,0.0,0 STARLINK-5439,1 54783U 22175AB  24158.37923491  .00000949  00000-0  77757-4 0  9991,2 54783  53.2131  28.0562 0002587 100.9418 259.1865 15.08828018 83314,6917.917,95.438,541.572,537.992,0.0
54783.0,STARLINK-5439,PAYLOAD,2024-06-07 00:59:57,15.08830854,0.0002273,53.2138,25.0828,100.9535,259.1713,3.9029e-05,3.33e-06,0.0,0 STARLINK-5439,1 54783U 22175AB  24159.04163953  .00000333  00000-0  39029-4 0  9992,2 54783  53.2138  25.0828 0002273 100.9535 259.1713 15.08830854 81259,6917.908,95.438,541.346,538.201,0.0
54783.0,STARLINK-5439,PAYLOAD,2024-06-07 15:18:25,15.088366,0.0001572,53.2161,22.4064,108.304,251.8123,0.00011499,1.542e-05,0.0,0 STARLINK-5439,1 54783U 22175AB  24159.63779425  .00001542  00000-0  11499-3 0  9997,2 54783  53.2161  22.4064 0001572 108.3040 251.8123 15.08836600 83501,6917.891,95.438,540.843,538.668,0.0
54783.0,STARLINK-5439,PAYLOAD,2024-06-07 21:39:57,15.08837828,0.0001188,53.2197,21.2185,109.0958,251.0163,0.00012869,1.761e-05,0.0,0 STARLINK-5439,1 54783U 22175AB  24159.90275376  .00001761  00000-0  12869-3 0  9998,2 54783  53.2197  21.2185 0001188 109.0958 251.0163 15.08837828 83543,6917.887,95.438,540.574,538.93,0.0
54783.0,STARLINK-5439,PAYLOAD,2024-06-08 07:12:15,15.08852163,0.0001648,53.2186,19.4324,84.1247,275.9933,0.00023895,3.518e-05,0.0,0 STARLINK-5439,1 54783U 22175AB  24160.30018262  .00003518  00000-0  23895-3 0  9996,2 54783  53.2186  19.4324 0001648  84.1247 275.9933 15.08852163 81446,6917.843,95.437,540.848,538.568,0.0
54783.0,STARLINK-5439,PAYLOAD,2024-06-08 15:09:13,15.08814433,4.81e-05,53.2205,17.9463,108.5316,251.5729,-6.6958e-05,-1.352e-05,0.0,0 STARLINK-5439,1 54783U 22175AB  24160.63141167 -.00001352  00000-0 -66958-4 0  9997,2 54783  53.2205  17.9463 0000481 108.5316 251.5729 15.08814433 83653,6917.959,95.439,540.156,539.491,0.0
54783.0,STARLINK-5439,PAYLOAD,2024-06-08 21:30:45,15.08831954,5.74e-05,53.2198,16.7581,76.2487,283.8569,7.3158e-05,8.77e-06,0.0,0 STARLINK-5439,1 54783U 22175AB  24160.89636165  .00000877  00000-0  73158-4 0  9991,2 54783  53.2198  16.7581 0000574  76.2487 283.8569 15.08831954 81537,6917.905,95.438,540.167,539.373,0.0
54783.0,STARLINK-5439,PAYLOAD,2024-06-09 14:59:59,15.08862387,0.0002329,53.2205,13.4928,114.9107,245.2128,-0.00032612,-5.478e-05,0.0,0 STARLINK-5439,1 54783U 22175AB  24161.62499811 -.00005478  00000-0 -32612-3 0  9991,2 54783  53.2205  13.4928 0002329 114.9107 245.2128 15.08862387 83803,6917.812,95.436,541.288,538.066,0.0
54783.0,STARLINK-5439,PAYLOAD,2024-06-09 21:21:33,15.08835119,8.09e-05,53.218,12.2978,73.605,286.5032,2.4553e-05,1.03e-06,0.0,0 STARLINK-5439,1 54783U 22175AB  24161.88996545  .00000103  00000-0  24553-4 0  9999,2 54783  53.2180  12.2978 0000809  73.6050 286.5032 15.08835119 83845,6917.895,95.438,540.32,539.201,0.0
54783.0,STARLINK-5439,PAYLOAD,2024-06-10 06:53:51,15.08847105,0.0001265,53.2186,10.5153,79.2905,280.823,3.7486e-06,-2.28e-06,0.0,0 STARLINK-5439,1 54783U 22175AB  24162.28739889 -.00000228  00000-0  37486-5 0  9999,2 54783  53.2186  10.5153 0001265  79.2905 280.8230 15.08847105 81747,6917.859,95.437,540.599,538.849,0.0
54783.0,STARLINK-5439,PAYLOAD,2024-06-10 19:36:57,15.08833967,0.0001167,53.2183,8.138,87.245,272.8676,9.5157e-05,1.227e-05,0.0,0 STARLINK-5439,1 54783U 22175AB  24162.81732708  .00001227  00000-0  95157-4 0  9998,2 54783  53.2183   8.1380 0001167  87.2450 272.8676 15.08833967 81829,6917.899,95.438,540.571,538.957,0.0
54783.0,STARLINK-5439,PAYLOAD,2024-06-10 22:47:43,15.08838427,9.82e-05,53.2197,7.5398,54.2817,305.8266,0.00011425,1.531e-05,0.0,0 STARLINK-5439,1 54783U 22175AB  24162.94980483  .00001531  00000-0  11425-3 0  9990,2 54783  53.2197   7.5398 0000982  54.2817 305.8266 15.08838427 84002,6917.885,95.438,540.43,539.071,0.0
54783.0,STARLINK-5439,PAYLOAD,2024-06-11 06:44:37,15.08851421,0.0001325,53.2191,6.0554,77.8869,282.2272,0.00021706,3.169e-05,0.0,0 STARLINK-5439,1 54783U 22175AB  24163.28099214  .00003169  00000-0  21706-3 0  9993,2 54783  53.2191   6.0554 0001325  77.8869 282.2272 15.08851421 84053,6917.845,95.437,540.627,538.794,0.0
54783.0,STARLINK-5439,PAYLOAD,2024-06-11 21:03:06,15.08840889,0.0001242,53.2175,3.3798,84.1068,276.0066,0.00014194,1.972e-05,0.0,0 STARLINK-5439,1 54783U 22175AB  24163.87716041  .00001972  00000-0  14194-3 0  9995,2 54783  53.2175   3.3798 0001242  84.1068 276.0066 15.08840889 81982,6917.878,95.437,540.602,538.883,0.0
54783.0,STARLINK-5439,PAYLOAD,2024-06-12 06:35:24,15.08852196,0.0001272,53.2178,1.596,84.2229,275.8908,0.00014156,1.966e-05,0.0,0 STARLINK-5439,1 54783U 22175AB  24164.27459206  .00001966  00000-0  14156-3 0  9998,2 54783  53.2178   1.5960 0001272  84.2229 275.8908 15.08852196 82043,6917.843,95.437,540.588,538.828,0.0
54783.0,STARLINK-5439,PAYLOAD,2024-06-12 19:18:31,15.08832737,0.0001316,53.2185,359.2161,88.0805,272.0338,-6.8653e-05,-1.38e-05,0.0,0 STARLINK-5439,1 54783U 22175AB  24164.80453151 -.00001380  00000-0 -68653-4 0  9994,2 54783  53.2185 359.2161 0001316  88.0805 272.0338 15.08832737 82122,6917.903,95.438,540.678,538.857,0.0
54783.0,STARLINK-5439,PAYLOAD,2024-06-13 06:26:12,15.08846159,0.0001511,53.2198,357.1348,85.3124,274.8041,-1.0614e-05,-4.57e-06,0.0,0 STARLINK-5439,1 54783U 22175AB  24165.26820181 -.00000457  00000-0 -10614-4 0  9994,2 54783  53.2198 357.1348 0001511  85.3124 274.8041 15.08846159 82192,6917.862,95.437,540.772,538.681,0.0
54783.0,STARLINK-5439,PAYLOAD,2024-06-13 22:20:03,15.08847673,0.0001295,53.2185,354.1586,102.177,257.9368,0.00010665,1.41e-05,0.0,0 STARLINK-5439,1 54783U 22175AB  24165.93059818  .00001410  00000-0  10665-3 0  9992,2 54783  53.2185 354.1586 0001295 102.1770 257.9368 15.08847673 84450,6917.857,95.437,540.618,538.826,0.0
54783.0,STARLINK-5439,PAYLOAD,2024-06-14 12:38:32,15.08840026,0.0001457,53.2186,351.4819,106.4614,253.6538,0.00024463,3.607e-05,0.0,0 STARLINK-5439,1 54783U 22175AB  24166.52676301  .00003607  00000-0  24463-3 0  9991,2 54783  53.2186 351.4819 0001457 106.4614 253.6538 15.08840026 84541,6917.88,95.438,540.753,538.737,0.0
54783.0,STARLINK-5439,PAYLOAD,2024-06-14 22:10:51,15.08840438,0.0001144,53.2171,349.6983,92.3,267.8123,0.00015096,2.116e-05,0.0,0 STARLINK-5439,1 54783U 22175AB  24166.92420366  .00002116  00000-0  15096-3 0  9999,2 54783  53.2171 349.6983 0001144  92.3000 267.8123 15.08840438 84602,6917.879,95.438,540.535,538.953,0.0
54783.0,STARLINK-5439,PAYLOAD,2024-06-15 12:29:19,15.08849042,0.0001369,53.2171,347.0214,82.8257,277.289,-0.00011011,-2.04e-05,0.0,0 STARLINK-5439,1 54783U 22175AB  24167.52035920 -.00002040  00000-0 -11011-3 0  9995,2 54783  53.2171 347.0214 0001369  82.8257 277.2890 15.08849042 84693,6917.853,95.437,540.665,538.771,0.0
54783.0,STARLINK-5439,PAYLOAD,2024-06-15 18:50:52,15.08834817,0.0001214,53.2169,345.8341,81.4129,278.7001,0.0002999,4.488e-05,0.0,0 STARLINK-5439,1 54783U 22175AB  24167.78532744  .00004488  00000-0  29990-3 0  9990,2 54783  53.2169 345.8341 0001214  81.4129 278.7001 15.08834817 84738,6917.896,95.438,540.601,538.921,0.0
54783.0,STARLINK-5439,PAYLOAD,2024-06-16 12:20:06,15.08844845,0.0002453,53.2173,342.5617,76.1703,283.9562,0.00013099,1.797e-05,0.0,0 STARLINK-5439,1 54783U 22175AB  24168.51396187  .00001797  00000-0  13099-3 0  9994,2 54783  53.2173 342.5617 0002453  76.1703 283.9562 15.08844845 84842,6917.866,95.437,541.428,538.034,0.0
54783.0,STARLINK-5439,PAYLOAD,2024-06-16 20:17:02,15.08833541,0.0001296,53.2189,341.0763,88.3862,271.7278,4.0219e-05,3.52e-06,0.0,0 STARLINK-5439,1 54783U 22175AB  24168.84517054  .00000352  00000-0  40219-4 0  9999,2 54783  53.2189 341.0763 0001296  88.3862 271.7278 15.08833541 84895,6917.9,95.438,540.662,538.869,0.0
54783.0,STARLINK-5439,PAYLOAD,2024-06-17 20:07:49,15.08832137,0.0001349,53.218,336.6201,91.9476,268.167,-1.0321e-05,-4.52e-06,0.0,0 STARLINK-5439,1 54783U 22175AB  24169.83877074 -.00000452  00000-0 -10321-4 0  9994,2 54783  53.2180 336.6201 0001349  91.9476 268.1670 15.08832137 82886,6917.904,95.438,540.703,538.836,0.0
54783.0,STARLINK-5439,PAYLOAD,2024-06-18 10:26:18,15.08834947,0.000171,53.2194,333.9429,96.6339,263.4848,0.00019671,2.844e-05,0.0,0 STARLINK-5439,1 54783U 22175AB  24170.43493346  .00002844  00000-0  19671-3 0  9999,2 54783  53.2194 333.9429 0001710  96.6339 263.4848 15.08834947 85132,6917.896,95.438,540.944,538.578,0.0
54783.0,STARLINK-5439,PAYLOAD,2024-06-18 18:23:13,15.08835019,0.0001231,53.2172,332.4548,86.2395,273.8738,0.00010962,1.457e-05,0.0,0 STARLINK-5439,1 54783U 22175AB  24170.76613183  .00001457  00000-0  10962-3 0  9991,2 54783  53.2172 332.4548 0001231  86.2395 273.8738 15.08835019 85188,6917.896,95.438,540.612,538.909,0.0
54783.0,STARLINK-5439,PAYLOAD,2024-06-19 03:55:32,15.08844765,0.0001303,53.217,330.67,83.4395,276.6745,0.00017024,2.423e-05,0.0,0 STARLINK-5439,1 54783U 22175AB  24171.16356770  .00002423  00000-0  17024-3 0  9992,2 54783  53.2170 330.6700 0001303  83.4395 276.6745 15.08844765 83089,6917.866,95.437,540.632,538.829,0.0
54783.0,STARLINK-5439,PAYLOAD,2024-06-19 10:17:05,15.08840001,0.0001224,53.2174,329.4841,85.1048,275.0084,0.00018398,2.641e-05,0.0,0 STARLINK-5439,1 54783U 22175AB  24171.42853120  .00002641  00000-0  18398-3 0  9999,2 54783  53.2174 329.4841 0001224  85.1048 275.0084 15.08840001 85283,6917.88,95.438,540.592,538.899,0.0
54783.0,STARLINK-5439,PAYLOAD,2024-06-19 18:14:00,15.08841107,0.0001126,53.2165,327.9942,87.1359,272.9762,3.1685e-05,2.17e-06,0.0,0 STARLINK-5439,1 54783U 22175AB  24171.75973129  .00000217  00000-0  31685-4 0  9999,2 54783  53.2165 327.9942 0001126  87.1359 272.9762 15.08841107 83179,6917.877,95.437,540.521,538.963,0.0
